{
  "type": "FeatureCollection",
  "features": [
    {
      "type": "Feature",
      "properties": {
        "id": "f_67a40febb4748ec304312659",
        "externalId": "MAP-5NIB1ZOO",
        "elevation": 0,
        "name": "Outdoors",
        "shortName": "Outdoors"
      },
      "geometry": {
        "type": "MultiPolygon",
        "coordinates": [
          [
            [
              [
                -122.39147537058807,
                37.778073039217944
              ],
              [
                -122.39144895281859,
                37.7780522354693
              ],
              [
                -122.39142263193342,
                37.778073115794335
              ],
              [
                -122.39144904970296,
                37.778093919548844
              ],
              [
                -122.39147537058807,
                37.778073039217944
              ]
            ]
          ],
          [
            [
              [
                -122.39120831825115,
                37.7778142089967
              ],
              [
                -122.3908220393937,
                37.77751001342076
              ],
              [
                -122.39078441063882,
                37.77755292133052
              ],
              [
                -122.39077139738176,
                37.777545879900885
              ],
              [
                -122.39076809461413,
                37.777549693117805
              ],
              [
                -122.39072458121136,
                37.77752606325208
              ],
              [
                -122.3907276212588,
                37.77752255336141
              ],
              [
                -122.39071358940613,
                37.77751496075932
              ],
              [
                -122.39071056547938,
                37.777518452037064
              ],
              [
                -122.3906635881362,
                37.77749294108549
              ],
              [
                -122.39066654004252,
                37.77748953296154
              ],
              [
                -122.39065250820279,
                37.777481940352544
              ],
              [
                -122.39064957240885,
                37.77748532987298
              ],
              [
                -122.39060293036378,
                37.77746000100437
              ],
              [
                -122.39060582882026,
                37.777456654594346
              ],
              [
                -122.39059179699258,
                37.77744906197782
              ],
              [
                -122.39058891464047,
                37.777452389794064
              ],
              [
                -122.39053916813243,
                37.777425375053085
              ],
              [
                -122.39054195498093,
                37.77742215750316
              ],
              [
                -122.39052792316596,
                37.77741456487939
              ],
              [
                -122.39051831706882,
                37.77742565557572
              ],
              [
                -122.39052337830545,
                37.777428394214176
              ],
              [
                -122.39050460491404,
                37.777450845883486
              ],
              [
                -122.39049918308123,
                37.777447910387046
              ],
              [
                -122.39048954710687,
                37.77745902897689
              ],
              [
                -122.39049520226291,
                37.77746209079974
              ],
              [
                -122.39047671081282,
                37.777484205286875
              ],
              [
                -122.39047254841553,
                37.77748195301015
              ],
              [
                -122.39046938831449,
                37.77748560148951
              ],
              [
                -122.3904412650059,
                37.77747035556962
              ],
              [
                -122.39044402018516,
                37.77746717459218
              ],
              [
                -122.39042998837213,
                37.77745958195714
              ],
              [
                -122.39042724153089,
                37.777462753307034
              ],
              [
                -122.39039954009587,
                37.777447736088924
              ],
              [
                -122.39040263988298,
                37.77744415724864
              ],
              [
                -122.39038860807814,
                37.77743656460835
              ],
              [
                -122.39038551662344,
                37.77744013382773
              ],
              [
                -122.39036113099735,
                37.77742691414198
              ],
              [
                -122.39036449513904,
                37.7774230609185
              ],
              [
                -122.3903504280491,
                37.77741544466532
              ],
              [
                -122.39034526046409,
                37.77742140733038
              ],
              [
                -122.39022539870163,
                37.77735620349994
              ],
              [
                -122.39023041975517,
                37.7773504064892
              ],
              [
                -122.39021638798579,
                37.77734281382849
              ],
              [
                -122.39020678185125,
                37.77735390449952
              ],
              [
                -122.39020712788991,
                37.77735409174279
              ],
              [
                -122.39006693133429,
                37.77740838814079
              ],
              [
                -122.39006858133324,
                37.77741104973041
              ],
              [
                -122.38990087398562,
                37.77747606431202
              ],
              [
                -122.38986580311042,
                37.77745690665045
              ],
              [
                -122.38846446824377,
                37.777992084897015
              ],
              [
                -122.3879602458545,
                37.778184644587775
              ],
              [
                -122.38798705459827,
                37.77844787067606
              ],
              [
                -122.38795944331859,
                37.778458454376626
              ],
              [
                -122.38793040767348,
                37.77847343539913
              ],
              [
                -122.38790423840655,
                37.77849091989857
              ],
              [
                -122.38787570591894,
                37.77851581760739
              ],
              [
                -122.38785598464585,
                37.77853938567986
              ],
              [
                -122.38783830280961,
                37.77856925979465
              ],
              [
                -122.38783389105305,
                37.77856804233854
              ],
              [
                -122.38782805698992,
                37.77857040496474
              ],
              [
                -122.38781811679658,
                37.778598287521824
              ],
              [
                -122.38782134414522,
                37.77860365180323
              ],
              [
                -122.387826945593,
                37.778604867733556
              ],
              [
                -122.38782141524386,
                37.77863491162108
              ],
              [
                -122.38790717970664,
                37.778702454645995
              ],
              [
                -122.38790717949284,
                37.77870245481563
              ],
              [
                -122.38800325746266,
                37.77877812030835
              ],
              [
                -122.38800325777679,
                37.77877812005885
              ],
              [
                -122.38808681275668,
                37.77884392302556
              ],
              [
                -122.38808681247843,
                37.77884392325162
              ],
              [
                -122.38821978448851,
                37.77894864370711
              ],
              [
                -122.38851737124367,
                37.77918300301157
              ],
              [
                -122.38851737167393,
                37.77918300266919
              ],
              [
                -122.38865349198333,
                37.77929020155406
              ],
              [
                -122.38873108850508,
                37.77935131067197
              ],
              [
                -122.38873754915865,
                37.77934618582887
              ],
              [
                -122.38881546194555,
                37.77940754389538
              ],
              [
                -122.38924496581285,
                37.77974578483832
              ],
              [
                -122.38929308669195,
                37.77970761323366
              ],
              [
                -122.38932459357224,
                37.779732425196094
              ],
              [
                -122.38942126910996,
                37.77965573768947
              ],
              [
                -122.38938761500482,
                37.77962923479379
              ],
              [
                -122.3894436241339,
                37.77958480566998
              ],
              [
                -122.38948229127116,
                37.77961525635072
              ],
              [
                -122.38998000660243,
                37.77922044103875
              ],
              [
                -122.39001202762633,
                37.77919503997642
              ],
              [
                -122.39002356207605,
                37.77918589012905
              ],
              [
                -122.39008303760775,
                37.77913871036143
              ],
              [
                -122.39009255054184,
                37.77913116408982
              ],
              [
                -122.3901894340951,
                37.77905430968814
              ],
              [
                -122.39019894700748,
                37.77904676340797
              ],
              [
                -122.39029672141935,
                37.77896920205258
              ],
              [
                -122.39030623430979,
                37.77896165576377
              ],
              [
                -122.39040338459135,
                37.77888458924649
              ],
              [
                -122.39041289746004,
                37.77887704294912
              ],
              [
                -122.3904901894453,
                37.778815729255236
              ],
              [
                -122.39049970229583,
                37.77880818295122
              ],
              [
                -122.39054013187409,
                37.77877611116241
              ],
              [
                -122.39091803856468,
                37.778476325178474
              ],
              [
                -122.39091960212559,
                37.778477556709234
              ],
              [
                -122.39101219108261,
                37.778404107007894
              ],
              [
                -122.39091214766393,
                37.778325323222475
              ],
              [
                -122.39089455574573,
                37.778339278659224
              ],
              [
                -122.39089312542056,
                37.77834042940922
              ],
              [
                -122.3908512048236,
                37.778307417030135
              ],
              [
                -122.39084427610294,
                37.77826511925073
              ],
              [
                -122.39104399741738,
                37.77803625053532
              ],
              [
                -122.39102523231338,
                37.77802598003015
              ],
              [
                -122.39120831825115,
                37.7778142089967
              ]
            ],
            [
              [
                -122.39009059376365,
                37.778383936915496
              ],
              [
                -122.39008548835058,
                37.778339879002424
              ],
              [
                -122.39008700294262,
                37.77835294910552
              ],
              [
                -122.39009059376365,
                37.778383936915496
              ]
            ],
            [
              [
                -122.39009059376365,
                37.778383936915496
              ],
              [
                -122.39008075769917,
                37.778413919723945
              ],
              [
                -122.39007603887657,
                37.77842830317337
              ],
              [
                -122.39009059376365,
                37.778383936915496
              ]
            ],
            [
              [
                -122.39005005040227,
                37.778470995284046
              ],
              [
                -122.39004040205786,
                37.778478649033204
              ],
              [
                -122.38995207147934,
                37.77854871898523
              ],
              [
                -122.38986376181117,
                37.77861877215094
              ],
              [
                -122.38976822927245,
                37.77869455475949
              ],
              [
                -122.39005005040227,
                37.778470995284046
              ]
            ],
            [
              [
                -122.3900259703435,
                37.778258050305475
              ],
              [
                -122.38999710562025,
                37.778242227476404
              ],
              [
                -122.38996388566315,
                37.77822401682196
              ],
              [
                -122.38999710566992,
                37.77824222741964
              ],
              [
                -122.3900259703435,
                37.778258050305475
              ]
            ],
            [
              [
                -122.3898373652053,
                37.77815466031041
              ],
              [
                -122.38975352955195,
                37.778108702932784
              ],
              [
                -122.38981460664185,
                37.77814218437758
              ],
              [
                -122.3898373652053,
                37.77815466031041
              ]
            ],
            [
              [
                -122.3897621426664,
                37.77868976148053
              ],
              [
                -122.38976135929065,
                37.778690382904
              ],
              [
                -122.38967306613479,
                37.778760422551215
              ],
              [
                -122.38964335003135,
                37.778783995176276
              ],
              [
                -122.3897621426664,
                37.77868976148053
              ]
            ],
            [
              [
                -122.38969309166347,
                37.77808612320233
              ],
              [
                -122.38961631270513,
                37.77804358421152
              ],
              [
                -122.38952562439987,
                37.77799333793673
              ],
              [
                -122.38961631277375,
                37.77804358413438
              ],
              [
                -122.38969309166347,
                37.77808612320233
              ]
            ],
            [
              [
                -122.38956896041573,
                37.778855470091074
              ],
              [
                -122.38956859587954,
                37.77885566976695
              ],
              [
                -122.3894894756083,
                37.778899006970214
              ],
              [
                -122.38948412042804,
                37.77890194012352
              ],
              [
                -122.38947701095661,
                37.778905834294825
              ],
              [
                -122.38940803014053,
                37.77894361708446
              ],
              [
                -122.38956896041573,
                37.778855470091074
              ]
            ],
            [
              [
                -122.38954415546719,
                37.777971842888334
              ],
              [
                -122.38954356845049,
                37.7779725237895
              ],
              [
                -122.38954415526015,
                37.777971843121406
              ],
              [
                -122.38945063877674,
                37.77792000465586
              ],
              [
                -122.389460743589,
                37.777925605917176
              ],
              [
                -122.38947441358492,
                37.777933183355785
              ],
              [
                -122.3894830156364,
                37.77793795173585
              ],
              [
                -122.38954415546719,
                37.777971842888334
              ]
            ],
            [
              [
                -122.38939891560433,
                37.77894860942639
              ],
              [
                -122.38938842704201,
                37.77895435472076
              ],
              [
                -122.3893462307914,
                37.77897746677246
              ],
              [
                -122.38933028135705,
                37.77898620274148
              ],
              [
                -122.38939891560433,
                37.77894860942639
              ]
            ],
            [
              [
                -122.38932892122821,
                37.77791162916231
              ],
              [
                -122.38930013405157,
                37.7779096482909
              ],
              [
                -122.3893171674605,
                37.77791082024707
              ],
              [
                -122.38932892122821,
                37.77791162916231
              ]
            ],
            [
              [
                -122.38930611448887,
                37.77899943975835
              ],
              [
                -122.3893017778058,
                37.77900374050013
              ],
              [
                -122.38926251130488,
                37.77904268009528
              ],
              [
                -122.38925747462699,
                37.77904767478031
              ],
              [
                -122.38925154389284,
                37.77905355617415
              ],
              [
                -122.38919771770962,
                37.77910693362626
              ],
              [
                -122.38930611448887,
                37.77899943975835
              ]
            ],
            [
              [
                -122.38919771770962,
                37.77910693362626
              ],
              [
                -122.38918802577973,
                37.77910457794854
              ],
              [
                -122.38918342929523,
                37.77910346064001
              ],
              [
                -122.38919771770962,
                37.77910693362626
              ]
            ],
            [
              [
                -122.3891832139892,
                37.777831154326485
              ],
              [
                -122.38916254897617,
                37.777798012853616
              ],
              [
                -122.38916414891543,
                37.77780057859271
              ],
              [
                -122.3891832139892,
                37.777831154326485
              ]
            ],
            [
              [
                -122.38907756921037,
                37.77907772995995
              ],
              [
                -122.38906629210311,
                37.779068849009974
              ],
              [
                -122.38899885788322,
                37.77901574313151
              ],
              [
                -122.38893190990215,
                37.778963020062925
              ],
              [
                -122.38886494075844,
                37.77891028021513
              ],
              [
                -122.38879751539297,
                37.778857180967194
              ],
              [
                -122.388730554903,
                37.778804447707415
              ],
              [
                -122.38866355663684,
                37.77875168458459
              ],
              [
                -122.38859645259127,
                37.77869883804381
              ],
              [
                -122.38854768018875,
                37.77866042817568
              ],
              [
                -122.38907756921037,
                37.77907772995995
              ]
            ],
            [
              [
                -122.38895614736192,
                37.77925573627209
              ],
              [
                -122.3889561063241,
                37.77925576882513
              ],
              [
                -122.38890442951883,
                37.779215072264826
              ],
              [
                -122.38895614736192,
                37.77925573627209
              ]
            ],
            [
              [
                -122.38873916278135,
                37.77800256123353
              ],
              [
                -122.38848666763447,
                37.77809790197278
              ],
              [
                -122.38850009939304,
                37.778092829993035
              ],
              [
                -122.38850275834827,
                37.77809182593964
              ],
              [
                -122.38858547994064,
                37.77806058900887
              ],
              [
                -122.38859804535768,
                37.778055844263086
              ],
              [
                -122.38867904118844,
                37.77802526215171
              ],
              [
                -122.388706268427,
                37.77801498141466
              ],
              [
                -122.38871825474219,
                37.778010455347925
              ],
              [
                -122.38873916278135,
                37.77800256123353
              ]
            ],
            [
              [
                -122.38853435655106,
                37.778537900849834
              ],
              [
                -122.38853294849038,
                37.77852495228239
              ],
              [
                -122.3885264840663,
                37.778465506094115
              ],
              [
                -122.38851999816603,
                37.77840586034546
              ],
              [
                -122.38851354898483,
                37.77834655131718
              ],
              [
                -122.38850705165396,
                37.77828679902627
              ],
              [
                -122.38850057113756,
                37.778227203020855
              ],
              [
                -122.38849409797994,
                37.778167674009474
              ],
              [
                -122.38849255510186,
                37.77815348482865
              ],
              [
                -122.38853435655106,
                37.778537900849834
              ]
            ]
          ],
          [
            [
              [
                -122.38923980848989,
                37.77984375885766
              ],
              [
                -122.38921339071675,
                37.779822954609934
              ],
              [
                -122.38918706856958,
                37.77984383443767
              ],
              [
                -122.38921348634278,
                37.779864638691286
              ],
              [
                -122.38923980848989,
                37.77984375885766
              ]
            ]
          ],
          [
            [
              [
                -122.38913474700747,
                37.776200625345155
              ],
              [
                -122.38910833056578,
                37.77617982107399
              ],
              [
                -122.38908200968613,
                37.776200700878384
              ],
              [
                -122.38910842612793,
                37.77622150515542
              ],
              [
                -122.38913474700747,
                37.776200625345155
              ]
            ]
          ],
          [
            [
              [
                -122.38688935968887,
                37.77799515802573
              ],
              [
                -122.38686294323784,
                37.77797435325331
              ],
              [
                -122.38683662108505,
                37.77799523255821
              ],
              [
                -122.38686303753614,
                37.778016037336506
              ],
              [
                -122.38688935968887,
                37.77799515802573
              ]
            ]
          ]
        ]
      }
    },
    {
      "type": "Feature",
      "properties": {
        "id": "f_67a4103590b13e2a80cc9a6e",
        "externalId": "MAP-QSHQPU60",
        "elevation": 0,
        "name": "Field Level",
        "shortName": "FL"
      },
      "geometry": {
        "type": "Polygon",
        "coordinates": [
          [
            [
              -122.39121601366374,
              37.77781356398685
            ],
            [
              -122.39082108165154,
              37.777502575623366
            ],
            [
              -122.390778624704,
              37.7775525091416
            ],
            [
              -122.39052920297922,
              37.77741707934983
            ],
            [
              -122.39047272084669,
              37.77748455414294
            ],
            [
              -122.39035651067567,
              37.777421781898425
            ],
            [
              -122.39023111977647,
              37.777353577314535
            ],
            [
              -122.39021946875744,
              37.77734723848296
            ],
            [
              -122.38990134115073,
              37.77747058043235
            ],
            [
              -122.38986629475131,
              37.77745143041309
            ],
            [
              -122.38892650754958,
              37.77781037509683
            ],
            [
              -122.38832795771285,
              37.77803897895878
            ],
            [
              -122.38795396194578,
              37.77818182163543
            ],
            [
              -122.38798077781836,
              37.778445050353675
            ],
            [
              -122.3879568345574,
              37.77845422889585
            ],
            [
              -122.38792683854851,
              37.77846966542162
            ],
            [
              -122.38790008443421,
              37.77848754179264
            ],
            [
              -122.38787098067787,
              37.77851294133061
            ],
            [
              -122.38785076797473,
              37.77853709406054
            ],
            [
              -122.38784876749787,
              37.77854047167132
            ],
            [
              -122.38783518879056,
              37.77856342442414
            ],
            [
              -122.38783344914401,
              37.77856294676214
            ],
            [
              -122.38782302512256,
              37.778567167004475
            ],
            [
              -122.38781177002434,
              37.7785987398115
            ],
            [
              -122.38781713630637,
              37.77860765246041
            ],
            [
              -122.38782028956395,
              37.77860833153002
            ],
            [
              -122.3878150854236,
              37.77863660105187
            ],
            [
              -122.38782202589178,
              37.77864206661007
            ],
            [
              -122.38793249924099,
              37.778729063245805
            ],
            [
              -122.38873114321316,
              37.77935797806976
            ],
            [
              -122.38873760362627,
              37.779352853062136
            ],
            [
              -122.3892450378683,
              37.77975243814591
            ],
            [
              -122.38925346064795,
              37.77974575636649
            ],
            [
              -122.38928523976539,
              37.77972054602035
            ],
            [
              -122.38929315708936,
              37.779714265210174
            ],
            [
              -122.38932466507049,
              37.77973907631493
            ],
            [
              -122.3894297600035,
              37.77965570436365
            ],
            [
              -122.38939610473236,
              37.77962920239427
            ],
            [
              -122.38940243022722,
              37.77962418436355
            ],
            [
              -122.38943505993088,
              37.77959829911135
            ],
            [
              -122.38944368914291,
              37.779591453515934
            ],
            [
              -122.38948235762507,
              37.77962190313925
            ],
            [
              -122.39101699413837,
              37.77840443995203
            ],
            [
              -122.39096922284892,
              37.778366822902704
            ],
            [
              -122.39094808793129,
              37.77835018039364
            ],
            [
              -122.39091206771307,
              37.77832181655674
            ],
            [
              -122.39089510490416,
              37.778335273864236
            ],
            [
              -122.39085685498371,
              37.77830515422463
            ],
            [
              -122.39085048089832,
              37.77826625056724
            ],
            [
              -122.39089356806903,
              37.77821687296088
            ],
            [
              -122.39103816229826,
              37.778051163254204
            ],
            [
              -122.39105227492678,
              37.77803498893276
            ],
            [
              -122.39103348406256,
              37.77802470568511
            ],
            [
              -122.39121601366374,
              37.77781356398685
            ]
          ]
        ]
      }
    },
    {
      "type": "Feature",
      "properties": {
        "id": "f_67a4105d1a05ad42c13cd47a",
        "externalId": "MAP-DSKMSNR6",
        "elevation": 1,
        "name": "Main Concourse",
        "shortName": "MC"
      },
      "geometry": {
        "type": "Polygon",
        "coordinates": [
          [
            [
              -122.39121598509972,
              37.77781349350592
            ],
            [
              -122.39082104051569,
              37.777502516829564
            ],
            [
              -122.39075930498699,
              37.777575120200055
            ],
            [
              -122.39074551744692,
              37.777567261110796
            ],
            [
              -122.39069425729411,
              37.77762618557938
            ],
            [
              -122.3907070898137,
              37.77763354491994
            ],
            [
              -122.3906127215563,
              37.77773965804955
            ],
            [
              -122.39057326518528,
              37.777719287553005
            ],
            [
              -122.39026899126387,
              37.77755073423381
            ],
            [
              -122.3903730875051,
              37.77743077497386
            ],
            [
              -122.39021942458659,
              37.777347196125795
            ],
            [
              -122.38990130079387,
              37.777470544159
            ],
            [
              -122.3898662476393,
              37.77745139881389
            ],
            [
              -122.3879539460313,
              37.7781818422121
            ],
            [
              -122.38798077820424,
              37.77844507165286
            ],
            [
              -122.38795683863844,
              37.77845424921897
            ],
            [
              -122.38792714720971,
              37.77846952670889
            ],
            [
              -122.38790008523692,
              37.778487562539375
            ],
            [
              -122.38787098382676,
              37.77851296059426
            ],
            [
              -122.38785077301709,
              37.77853711745959
            ],
            [
              -122.38783519107469,
              37.77856344809395
            ],
            [
              -122.38783345449414,
              37.77856296933494
            ],
            [
              -122.3878230291182,
              37.77856719190136
            ],
            [
              -122.38781177796845,
              37.778598759558044
            ],
            [
              -122.38781714217295,
              37.77860767336626
            ],
            [
              -122.38782029454552,
              37.778608357479236
            ],
            [
              -122.38781509401079,
              37.778636625105136
            ],
            [
              -122.38873118244567,
              37.779357976180606
            ],
            [
              -122.3887376428392,
              37.77935285083272
            ],
            [
              -122.38924509493783,
              37.77975242224019
            ],
            [
              -122.38929321248251,
              37.77971424798445
            ],
            [
              -122.3893247215532,
              37.77973905822487
            ],
            [
              -122.38942981282452,
              37.779655683390985
            ],
            [
              -122.38939615592507,
              37.779629181979054
            ],
            [
              -122.38944373868343,
              37.779591431813735
            ],
            [
              -122.38948240849422,
              37.779621880369625
            ],
            [
              -122.3910169917677,
              37.77840437490691
            ],
            [
              -122.3909120617229,
              37.77832175439669
            ],
            [
              -122.39089509934786,
              37.778335212294145
            ],
            [
              -122.39085684697368,
              37.778305092813135
            ],
            [
              -122.39085047049979,
              37.778266187560256
            ],
            [
              -122.39105225358524,
              37.778034921827704
            ],
            [
              -122.39103346618793,
              37.77802464071765
            ],
            [
              -122.39121598509972,
              37.77781349350592
            ]
          ],
          [
            [
              -122.39006071344066,
              37.77829831354028
            ],
            [
              -122.39005776717421,
              37.7782959936426
            ],
            [
              -122.3900191823409,
              37.77826561182682
            ],
            [
              -122.39006071344066,
              37.77829831354028
            ]
          ],
          [
            [
              -122.38999708644123,
              37.77824215398529
            ],
            [
              -122.38990584686424,
              37.77819214551516
            ],
            [
              -122.38984914477598,
              37.778161066677484
            ],
            [
              -122.38999708644123,
              37.77824215398529
            ]
          ],
          [
            [
              -122.38973210057185,
              37.77809691436859
            ],
            [
              -122.38972265652815,
              37.778091738074195
            ],
            [
              -122.38969923523942,
              37.77807890077302
            ],
            [
              -122.38973210057185,
              37.77809691436859
            ]
          ],
          [
            [
              -122.38954411208526,
              37.77797179476407
            ],
            [
              -122.38952558342375,
              37.77799329024576
            ],
            [
              -122.3895258467524,
              37.77799298439392
            ],
            [
              -122.38954411208526,
              37.77797179476407
            ]
          ],
          [
            [
              -122.38915645290957,
              37.77909686248565
            ],
            [
              -122.38915645275854,
              37.77909686260548
            ],
            [
              -122.38907762347179,
              37.77907770684878
            ],
            [
              -122.38915645290957,
              37.77909686248565
            ]
          ],
          [
            [
              -122.38913600231338,
              37.77780835466504
            ],
            [
              -122.38910320489795,
              37.777821193478815
            ],
            [
              -122.3891032048238,
              37.77782119335623
            ],
            [
              -122.38913600216365,
              37.77780835441751
            ],
            [
              -122.38913600231338,
              37.77780835466504
            ]
          ],
          [
            [
              -122.388996531145,
              37.77786295229845
            ],
            [
              -122.38896818924961,
              37.77787404706868
            ],
            [
              -122.38896396551634,
              37.777875700487414
            ],
            [
              -122.38896396545715,
              37.777875700389544
            ],
            [
              -122.38899653106458,
              37.77786295216545
            ],
            [
              -122.388996531145,
              37.77786295229845
            ]
          ],
          [
            [
              -122.38877651509956,
              37.77794908049897
            ],
            [
              -122.38875922953578,
              37.77795584691575
            ],
            [
              -122.38875690287301,
              37.77795675768996
            ],
            [
              -122.38877651496935,
              37.777949080283676
            ],
            [
              -122.38877651509956,
              37.77794908049897
            ]
          ],
          [
            [
              -122.38875690287301,
              37.77795675768996
            ],
            [
              -122.38875416733882,
              37.777963804353995
            ],
            [
              -122.38875416724903,
              37.777963804205484
            ],
            [
              -122.38875690287301,
              37.77795675768996
            ]
          ],
          [
            [
              -122.38854769780185,
              37.77866043413771
            ],
            [
              -122.38854516401165,
              37.778637151746366
            ],
            [
              -122.38854516453303,
              37.77863715171886
            ],
            [
              -122.38854591253583,
              37.77864402680988
            ],
            [
              -122.38854769780185,
              37.77866043413771
            ]
          ],
          [
            [
              -122.3885427760407,
              37.778615205843714
            ],
            [
              -122.38854277567177,
              37.77861520586316
            ],
            [
              -122.38853939640983,
              37.77858415463453
            ],
            [
              -122.3885393966036,
              37.778584154621086
            ],
            [
              -122.3885394561338,
              37.77858470153457
            ],
            [
              -122.3885427760407,
              37.778615205843714
            ]
          ],
          [
            [
              -122.38849213585631,
              37.77814988872685
            ],
            [
              -122.38848648540664,
              37.77809796809815
            ],
            [
              -122.38848761735858,
              37.77810836752649
            ],
            [
              -122.38849213585631,
              37.77814988872685
            ]
          ]
        ]
      }
    },
    {
      "type": "Feature",
      "properties": {
        "id": "f_67a4108afc9191deb55c6652",
        "externalId": "MAP-0SSMBPIS",
        "elevation": 2,
        "name": "Club Level",
        "shortName": "CL"
      },
      "geometry": {
        "type": "Polygon",
        "coordinates": [
          [
            [
              -122.39120823317522,
              37.777813998981685
            ],
            [
              -122.39082191424528,
              37.77750983519452
            ],
            [
              -122.39076077856497,
              37.77758173891757
            ],
            [
              -122.39074693758228,
              37.7775738500628
            ],
            [
              -122.39070243329147,
              37.7776250129229
            ],
            [
              -122.39071531536236,
              37.77763239974007
            ],
            [
              -122.39061425502668,
              37.77774604525859
            ],
            [
              -122.39057488184088,
              37.77772571908903
            ],
            [
              -122.3905780303621,
              37.7777218923338
            ],
            [
              -122.39026895196184,
              37.777550690152104
            ],
            [
              -122.39029672453533,
              37.77751868464875
            ],
            [
              -122.39029180300535,
              37.7775160176864
            ],
            [
              -122.39036475188924,
              37.777431943566754
            ],
            [
              -122.39021886961955,
              37.77735260248172
            ],
            [
              -122.39009256821019,
              37.77740157900753
            ],
            [
              -122.39009944596678,
              37.77739365951888
            ],
            [
              -122.38990125755973,
              37.77747050982263
            ],
            [
              -122.38986620332112,
              37.77745136562222
            ],
            [
              -122.38940422371829,
              37.777627849410074
            ],
            [
              -122.38940947250971,
              37.77763108250952
            ],
            [
              -122.38796020959263,
              37.77818470187024
            ],
            [
              -122.38798705302688,
              37.77844792577015
            ],
            [
              -122.387959443131,
              37.77845851171998
            ],
            [
              -122.38793040945912,
              37.778473495130285
            ],
            [
              -122.38790424248846,
              37.77849098178762
            ],
            [
              -122.38787571329529,
              37.778515881851746
            ],
            [
              -122.38785599511944,
              37.77853945153442
            ],
            [
              -122.38783831721337,
              37.778569327118554
            ],
            [
              -122.38783390530776,
              37.778568110011165
            ],
            [
              -122.38782807157241,
              37.77857047312847
            ],
            [
              -122.38781813502774,
              37.77859835649747
            ],
            [
              -122.38782136307381,
              37.77860372052326
            ],
            [
              -122.38782696469949,
              37.77860493600459
            ],
            [
              -122.38782143831368,
              37.77863498032272
            ],
            [
              -122.38873120595444,
              37.779351304512346
            ],
            [
              -122.38873766591682,
              37.77934617915028
            ],
            [
              -122.38881110152613,
              37.77940399925754
            ],
            [
              -122.38880689044527,
              37.77940734036672
            ],
            [
              -122.38924515148747,
              37.7797524059058
            ],
            [
              -122.38929326732796,
              37.779714230352184
            ],
            [
              -122.38932477751389,
              37.77973903974853
            ],
            [
              -122.3894298651222,
              37.77965566203317
            ],
            [
              -122.38939620747921,
              37.77962916187536
            ],
            [
              -122.38944378860715,
              37.77959141038307
            ],
            [
              -122.3894824597212,
              37.77962185785151
            ],
            [
              -122.39101698930547,
              37.77840431047064
            ],
            [
              -122.39091205566665,
              37.77832169286554
            ],
            [
              -122.39089509429233,
              37.77833515090319
            ],
            [
              -122.39085683973998,
              37.7783050317979
            ],
            [
              -122.39085046177068,
              37.778266127190484
            ],
            [
              -122.3910522345219,
              37.778034856124144
            ],
            [
              -122.39102853873958,
              37.77802189361487
            ],
            [
              -122.39120823317522,
              37.777813998981685
            ]
          ]
        ]
      }
    },
    {
      "type": "Feature",
      "properties": {
        "id": "f_67a410ad9e6e974ed13e039a",
        "externalId": "MAP-XH8R6ZQF",
        "elevation": 3,
        "name": "Suite Level",
        "shortName": "SL"
      },
      "geometry": {
        "type": "Polygon",
        "coordinates": [
          [
            [
              -122.39120820481338,
              37.77781392897928
            ],
            [
              -122.39082187252811,
              37.77750977578969
            ],
            [
              -122.3907607400052,
              37.777581681189744
            ],
            [
              -122.39074689867611,
              37.77757379271466
            ],
            [
              -122.39070239663192,
              37.77762495679556
            ],
            [
              -122.39071527902716,
              37.777632343259356
            ],
            [
              -122.3906142236818,
              37.77774599155006
            ],
            [
              -122.39057484960531,
              37.77772566645843
            ],
            [
              -122.39057799795673,
              37.777721839618984
            ],
            [
              -122.39026891203935,
              37.77755064591595
            ],
            [
              -122.39029668320741,
              37.777518639650765
            ],
            [
              -122.39029176156056,
              37.77751597282323
            ],
            [
              -122.39036470675246,
              37.77743189670271
            ],
            [
              -122.39021882099905,
              37.77735255961952
            ],
            [
              -122.39007421163844,
              37.77740844131018
            ],
            [
              -122.3900687564255,
              37.77740550315543
            ],
            [
              -122.38990121411692,
              37.77747047567301
            ],
            [
              -122.38986615903771,
              37.777451332434204
            ],
            [
              -122.3894977034994,
              37.77759210273441
            ],
            [
              -122.38950341610575,
              37.77759515824106
            ],
            [
              -122.38796019751126,
              37.778184720966124
            ],
            [
              -122.38798705250431,
              37.77844794412985
            ],
            [
              -122.3879594430733,
              37.77845853083706
            ],
            [
              -122.38793041005852,
              37.77847351504379
            ],
            [
              -122.3879042438566,
              37.77849100241892
            ],
            [
              -122.3878757157564,
              37.77851590326597
            ],
            [
              -122.38785599861595,
              37.778539473489204
            ],
            [
              -122.38783832202172,
              37.77856934955826
            ],
            [
              -122.3878339100623,
              37.77856813257223
            ],
            [
              -122.38782807643109,
              37.778570495849216
            ],
            [
              -122.38781814111044,
              37.77859837949112
            ],
            [
              -122.38782136939204,
              37.77860374342836
            ],
            [
              -122.38782697107152,
              37.77860495875568
            ],
            [
              -122.38782144600499,
              37.7786350032254
            ],
            [
              -122.38873124510043,
              37.77935130245811
            ],
            [
              -122.38873770483772,
              37.779346176918835
            ],
            [
              -122.38881114298412,
              37.77940399501579
            ],
            [
              -122.38880693205186,
              37.7794073362363
            ],
            [
              -122.38884880837809,
              37.77944030555007
            ],
            [
              -122.38912562719818,
              37.77965824443744
            ],
            [
              -122.38924520824644,
              37.77975238975292
            ],
            [
              -122.38929332241051,
              37.77971421287942
            ],
            [
              -122.38932483368583,
              37.77973902141137
            ],
            [
              -122.38942991763273,
              37.77965564081334
            ],
            [
              -122.38939625882608,
              37.77962914157883
            ],
            [
              -122.38944383829623,
              37.77959138878133
            ],
            [
              -122.38948251074727,
              37.77962183518894
            ],
            [
              -122.39101698686494,
              37.77840424571402
            ],
            [
              -122.39091204959844,
              37.77832163098748
            ],
            [
              -122.39089508881511,
              37.7783350894904
            ],
            [
              -122.390856833363,
              37.778304971767334
            ],
            [
              -122.39085045183178,
              37.7782660684716
            ],
            [
              -122.39105221585825,
              37.77803479040091
            ],
            [
              -122.39102851949743,
              37.77802182853653
            ],
            [
              -122.39120820481338,
              37.77781392897928
            ]
          ]
        ]
      }
    },
    {
      "type": "Feature",
      "properties": {
        "id": "f_67a410dacc5ab04059f36c6a",
        "externalId": "MAP-PF42DHZW",
        "elevation": 4,
        "name": "View Level Concourse",
        "shortName": "UC"
      },
      "geometry": {
        "type": "Polygon",
        "coordinates": [
          [
            [
              -122.3912081764497,
              37.77781385897812
            ],
            [
              -122.3908218308097,
              37.77750971638636
            ],
            [
              -122.39076070144421,
              37.77758162346333
            ],
            [
              -122.39074685976873,
              37.777573735367945
            ],
            [
              -122.39070235997124,
              37.77762490066957
            ],
            [
              -122.39071524269079,
              37.77763228677997
            ],
            [
              -122.39061419233586,
              37.77774593784271
            ],
            [
              -122.3905698213442,
              37.7777230350552
            ],
            [
              -122.39054267282215,
              37.77775603681662
            ],
            [
              -122.39053784946653,
              37.777753398649196
            ],
            [
              -122.39043269195544,
              37.77787659640832
            ],
            [
              -122.39012756794803,
              37.777709693294426
            ],
            [
              -122.39026549268588,
              37.77755449538147
            ],
            [
              -122.39029664184808,
              37.77751859465319
            ],
            [
              -122.39029172010491,
              37.777515927973155
            ],
            [
              -122.390364661615,
              37.77743184984015
            ],
            [
              -122.39021877237813,
              37.77735251675888
            ],
            [
              -122.39008156346917,
              37.77740573228006
            ],
            [
              -122.39007460084792,
              37.77740843262295
            ],
            [
              -122.39006908353585,
              37.77740531961976
            ],
            [
              -122.38989803004053,
              37.77747165989894
            ],
            [
              -122.38954835583527,
              37.777613935826004
            ],
            [
              -122.38954367387991,
              37.77761138847368
            ],
            [
              -122.38950950236517,
              37.77759279513161
            ],
            [
              -122.38796018543178,
              37.778184740062656
            ],
            [
              -122.38798705198315,
              37.77844796248889
            ],
            [
              -122.38795944301741,
              37.778458549953776
            ],
            [
              -122.3879304106606,
              37.77847353495693
            ],
            [
              -122.38790424522657,
              37.77849102304982
            ],
            [
              -122.38787571821936,
              37.7785159246791
            ],
            [
              -122.38785600211435,
              37.77853949544351
            ],
            [
              -122.3878383268316,
              37.77856937199711
            ],
            [
              -122.38783391481917,
              37.77856815513243
            ],
            [
              -122.38782808129132,
              37.77857051856912
            ],
            [
              -122.38781814719547,
              37.77859840248387
            ],
            [
              -122.38782137571218,
              37.778603766332225
            ],
            [
              -122.38782697744544,
              37.77860498150621
            ],
            [
              -122.38782145369777,
              37.77863502612714
            ],
            [
              -122.38873128424693,
              37.77935130040264
            ],
            [
              -122.38873774375917,
              37.779346174686175
            ],
            [
              -122.3888111844583,
              37.77940399077951
            ],
            [
              -122.38880697366187,
              37.77940733212492
            ],
            [
              -122.38924526500813,
              37.779752373618784
            ],
            [
              -122.38929337752353,
              37.779714195403415
            ],
            [
              -122.38932488965615,
              37.77973900288824
            ],
            [
              -122.3894299699436,
              37.77965561940598
            ],
            [
              -122.38939631017247,
              37.77962912125155
            ],
            [
              -122.38944388795699,
              37.779591367170944
            ],
            [
              -122.3894825617792,
              37.77962181254466
            ],
            [
              -122.3910169844475,
              37.77840418096285
            ],
            [
              -122.39091204351924,
              37.778321569087986
            ],
            [
              -122.39089508332815,
              37.77833502805516
            ],
            [
              -122.39085682657388,
              37.778304911397484
            ],
            [
              -122.3908504435374,
              37.77826600846259
            ],
            [
              -122.39105219718269,
              37.778034724658625
            ],
            [
              -122.3910285002684,
              37.77802176346891
            ],
            [
              -122.3912081764497,
              37.77781385897812
            ]
          ]
        ]
      }
    },
    {
      "type": "Feature",
      "properties": {
        "id": "f_67a41332035e439696d79138",
        "externalId": "MAP-02JNC8L5",
        "elevation": 5,
        "name": "View Level",
        "shortName": "VL"
      },
      "geometry": {
        "type": "Polygon",
        "coordinates": [
          [
            [
              -122.39120814808405,
              37.77781378897821
            ],
            [
              -122.3908217890899,
              37.777509656984584
            ],
            [
              -122.3907606628819,
              37.777581565738366
            ],
            [
              -122.3907468208601,
              37.77757367802267
            ],
            [
              -122.39070232330928,
              37.777624844544945
            ],
            [
              -122.39071520635312,
              37.77763223030196
            ],
            [
              -122.3906141609887,
              37.777745884136564
            ],
            [
              -122.39056978899147,
              37.77772298256622
            ],
            [
              -122.39043755477422,
              37.777879221128934
            ],
            [
              -122.3901569565211,
              37.77772575133894
            ],
            [
              -122.39012228652456,
              37.77770734350989
            ],
            [
              -122.39028809858009,
              37.77751966103147
            ],
            [
              -122.39028830456782,
              37.77751977264534
            ],
            [
              -122.39036461647677,
              37.77743180297915
            ],
            [
              -122.39021872375665,
              37.77735247389985
            ],
            [
              -122.39008151718451,
              37.77740569318481
            ],
            [
              -122.39008130330996,
              37.77740593944074
            ],
            [
              -122.38978115017602,
              37.77752453990866
            ],
            [
              -122.38977541787854,
              37.77752680491868
            ],
            [
              -122.38960483590263,
              37.77760414159165
            ],
            [
              -122.38955389414532,
              37.77761694423979
            ],
            [
              -122.38954363644393,
              37.77761136434197
            ],
            [
              -122.38950946429492,
              37.77759277172857
            ],
            [
              -122.38796017335478,
              37.77818475915888
            ],
            [
              -122.38798705146426,
              37.77844798084796
            ],
            [
              -122.38795944296348,
              37.778458569070196
            ],
            [
              -122.38793041126468,
              37.778473554869734
            ],
            [
              -122.38790424659857,
              37.77849104368036
            ],
            [
              -122.38787572068482,
              37.778515946092156
            ],
            [
              -122.38785600561482,
              37.77853951739739
            ],
            [
              -122.38783833164396,
              37.77856939443582
            ],
            [
              -122.38783391957807,
              37.77856817769218
            ],
            [
              -122.38782808615403,
              37.77857054128887
            ],
            [
              -122.38781815328258,
              37.778598425476126
            ],
            [
              -122.38782138203483,
              37.7786037892359
            ],
            [
              -122.38782698382144,
              37.77860500425623
            ],
            [
              -122.38782146139305,
              37.77863504902866
            ],
            [
              -122.38873132339408,
              37.779351298345894
            ],
            [
              -122.38873778268123,
              37.77934617245225
            ],
            [
              -122.38881545350038,
              37.7794073144577
            ],
            [
              -122.38924530460329,
              37.7797456879311
            ],
            [
              -122.38929341543785,
              37.77970750839598
            ],
            [
              -122.38932492886323,
              37.77973231517877
            ],
            [
              -122.38942158419412,
              37.77965561176122
            ],
            [
              -122.38938792310773,
              37.77962911440595
            ],
            [
              -122.38944392051556,
              37.77958467607552
            ],
            [
              -122.38948259567115,
              37.77961512038834
            ],
            [
              -122.3899759491058,
              37.77922360214087
            ],
            [
              -122.38997954525986,
              37.77922743141163
            ],
            [
              -122.3905448763019,
              37.77877878515303
            ],
            [
              -122.39056089026218,
              37.778759393085636
            ],
            [
              -122.39100854373241,
              37.77840412977655
            ],
            [
              -122.39091205460629,
              37.77832817662052
            ],
            [
              -122.39089509474782,
              37.77834163625677
            ],
            [
              -122.39085116461493,
              37.778307055776246
            ],
            [
              -122.39084427197076,
              37.77826505582918
            ],
            [
              -122.39104388575186,
              37.77803585754807
            ],
            [
              -122.39102511795346,
              37.778025590146356
            ],
            [
              -122.39120814808405,
              37.77781378897821
            ]
          ],
          [
            [
              -122.39053971462243,
              37.77828465097636
            ],
            [
              -122.39052180592043,
              37.7782884713848
            ],
            [
              -122.39053478482626,
              37.778285535945805
            ],
            [
              -122.39053971462243,
              37.77828465097636
            ]
          ],
          [
            [
              -122.38992544062377,
              37.77904247002287
            ],
            [
              -122.3899042487537,
              37.779054348964294
            ],
            [
              -122.38985731821525,
              37.77908036517561
            ],
            [
              -122.38992544062377,
              37.77904247002287
            ]
          ],
          [
            [
              -122.38918945099222,
              37.7793497836117
            ],
            [
              -122.38917828097216,
              37.77935940554334
            ],
            [
              -122.38917780054949,
              37.779359029136444
            ],
            [
              -122.38918945099222,
              37.7793497836117
            ]
          ]
        ]
      }
    }
  ]
}